[{"OBJECT_NAME":"STARLINK-1742","OBJECT_ID":"2020-062BD","EPOCH":"2026-03-10T00:00:02.999808","MEAN_MOTION":15.82363369,"ECCENTRICITY":0.00078051,"INCLINATION":53.0262,"RA_OF_ASC_NODE":254.219,"ARG_OF_PERICENTER":155.9322,"MEAN_ANOMALY":96.6249,"EPHEMERIS_TYPE":0,"CLASSIFICATION_TYPE":"U","NORAD_CAT_ID":46376,"ELEMENT_SET_NO":999,"REV_AT_EPOCH":592,"BSTAR":0.0013794836,"MEAN_MOTION_DOT":0.00301937,"MEAN_MOTION_DDOT":0},{"OBJECT_NAME":"STARLINK-36908","OBJECT_ID":"2026-037P","EPOCH":"2026-03-09T22:00:01.999584","MEAN_MOTION":15.82017008,"ECCENTRICITY":0.00018443,"INCLINATION":42.9987,"RA_OF_ASC_NODE":197.0471,"ARG_OF_PERICENTER":286.0166,"MEAN_ANOMALY":255.4972,"EPHEMERIS_TYPE":0,"CLASSIFICATION_TYPE":"U","NORAD_CAT_ID":67945,"ELEMENT_SET_NO":999,"REV_AT_EPOCH":323,"BSTAR":2.3156752e-5,"MEAN_MOTION_DOT":4.345e-5,"MEAN_MOTION_DDOT":0}]
